{"type": "FeatureCollection", "features": [ {"type": "Feature", "properties": {"norad_id": 34375, "name": "IRIDIUM 33 DEB", "group": "iridium-33-debris", "lat": 1.726968329341307, "lon": -179.27358100339003, "alt_km": 858.1799282999, "timestamp": "2025-12-17T21:39:46.074985+00:00", "meta": {"OBJECT_NAME": "IRIDIUM 33 DEB", "OBJECT_ID": "1997-051FT", "EPOCH": "2025-12-17T13:26:35.352096", "MEAN_MOTION": 14.18001231, "ECCENTRICITY": 0.01035674, "INCLINATION": 86.4323, "RA_OF_ASC_NODE": 180.7567, "ARG_OF_PERICENTER": 111.645, "MEAN_ANOMALY": 304.0989, "EPHEMERIS_TYPE": 0, "CLASSIFICATION_TYPE": "U", "NORAD_CAT_ID": 34375, "ELEMENT_SET_NO": 999, "REV_AT_EPOCH": 86780, "BSTAR": 0.00036037752, "MEAN_MOTION_DOT": 7.98e-06, "MEAN_MOTION_DDOT": 0}, "tle": {"line1": "1 34375U 97051FT  25351.56013139  .00000798  00000+0  36038-3 0  9994", "line2": "2 34375  86.4323 180.7567 0103567 111.6450 304.0989 14.18001231867807"}}, "geometry": {"type": "Point", "coordinates": [-179.27358100339003, 1.726968329341307]}}, {"type": "Feature", "properties": {"norad_id": 34376, "name": "IRIDIUM 33 DEB", "group": "iridium-33-debris", "lat": 56.62729390014685, "lon": 178.57846524812817, "alt_km": 661.7663622534255, "timestamp": "2025-12-17T21:39:46.074994+00:00", "meta": {"OBJECT_NAME": "IRIDIUM 33 DEB", "OBJECT_ID": "1997-051FU", "EPOCH": "2025-12-17T11:15:00.720576", "MEAN_MOTION": 14.6263273, "ECCENTRICITY": 0.00277539, "INCLINATION": 86.2981, "RA_OF_ASC_NODE": 4.4142, "ARG_OF_PERICENTER": 150.9794, "MEAN_ANOMALY": 209.2968, "EPHEMERIS_TYPE": 0, "CLASSIFICATION_TYPE": "U", "NORAD_CAT_ID": 34376, "ELEMENT_SET_NO": 999, "REV_AT_EPOCH": 88076, "BSTAR": 0.0010721746, "MEAN_MOTION_DOT": 5.502e-05, "MEAN_MOTION_DDOT": 0}, "tle": {"line1": "1 34376U 97051FU  25351.46875834  .00005502  00000+0  10722-2 0  9991", "line2": "2 34376  86.2981   4.4142 0027753 150.9794 209.2968 14.62632730880762"}}, "geometry": {"type": "Point", "coordinates": [178.57846524812817, 56.62729390014685]}}, {"type": "Feature", "properties": {"norad_id": 34486, "name": "IRIDIUM 33 DEB", "group": "iridium-33-debris", "lat": -58.192727914698956, "lon": -164.520450408513, "alt_km": 593.9314510913346, "timestamp": "2025-12-17T21:39:46.075003+00:00", "meta": {"OBJECT_NAME": "IRIDIUM 33 DEB", "OBJECT_ID": "1997-051GB", "EPOCH": "2025-12-17T01:34:32.789856", "MEAN_MOTION": 14.95995352, "ECCENTRICITY": 0.00138977, "INCLINATION": 86.393, "RA_OF_ASC_NODE": 10.0283, "ARG_OF_PERICENTER": 100.1337, "MEAN_ANOMALY": 313.5239, "EPHEMERIS_TYPE": 0, "CLASSIFICATION_TYPE": "U", "NORAD_CAT_ID": 34486, "ELEMENT_SET_NO": 999, "REV_AT_EPOCH": 89051, "BSTAR": 0.0017072639, "MEAN_MOTION_DOT": 0.00019234, "MEAN_MOTION_DDOT": 0}, "tle": {"line1": "1 34486U 97051GB  25351.06565729  .00019234  00000+0  17073-2 0  9991", "line2": "2 34486  86.3930  10.0283 0013897 100.1337 313.5239 14.95995352890514"}}, "geometry": {"type": "Point", "coordinates": [-164.520450408513, -58.192727914698956]}}, {"type": "Feature", "properties": {"norad_id": 34487, "name": "IRIDIUM 33 DEB", "group": "iridium-33-debris", "lat": -5.059231100404096, "lon": 9.830059312149087, "alt_km": 762.2629201077998, "timestamp": "2025-12-17T21:39:46.075012+00:00", "meta": {"OBJECT_NAME": "IRIDIUM 33 DEB", "OBJECT_ID": "1997-051GC", "EPOCH": "2025-12-17T08:26:40.670304", "MEAN_MOTION": 14.43222071, "ECCENTRICITY": 0.00330822, "INCLINATION": 86.3432, "RA_OF_ASC_NODE": 10.3915, "ARG_OF_PERICENTER": 114.0104, "MEAN_ANOMALY": 261.6876, "EPHEMERIS_TYPE": 0, "CLASSIFICATION_TYPE": "U", "NORAD_CAT_ID": 34487, "ELEMENT_SET_NO": 999, "REV_AT_EPOCH": 88315, "BSTAR": 0.00016017609, "MEAN_MOTION_DOT": 5.62e-06, "MEAN_MOTION_DDOT": 0}, "tle": {"line1": "1 34487U 97051GC  25351.35185961  .00000562  00000+0  16018-3 0  9993", "line2": "2 34487  86.3432  10.3915 0033082 114.0104 261.6876 14.43222071883157"}}, "geometry": {"type": "Point", "coordinates": [9.830059312149087, -5.059231100404096]}}, {"type": "Feature", "properties": {"norad_id": 34488, "name": "IRIDIUM 33 DEB", "group": "iridium-33-debris", "lat": 44.01198811923991, "lon": 119.6911143074444, "alt_km": 470.8290467134984, "timestamp": "2025-12-17T21:39:46.075021+00:00", "meta": {"OBJECT_NAME": "IRIDIUM 33 DEB", "OBJECT_ID": "1997-051GD", "EPOCH": "2025-12-17T06:57:02.777472", "MEAN_MOTION": 15.30547446, "ECCENTRICITY": 0.00117976, "INCLINATION": 86.3226, "RA_OF_ASC_NODE": 303.5578, "ARG_OF_PERICENTER": 43.8591, "MEAN_ANOMALY": 316.3592, "EPHEMERIS_TYPE": 0, "CLASSIFICATION_TYPE": "U", "NORAD_CAT_ID": 34488, "ELEMENT_SET_NO": 999, "REV_AT_EPOCH": 89309, "BSTAR": 0.0036319963, "MEAN_MOTION_DOT": 0.00108809, "MEAN_MOTION_DDOT": 0}, "tle": {"line1": "1 34488U 97051GD  25351.28961548  .00108809  00000+0  36320-2 0  9999", "line2": "2 34488  86.3226 303.5578 0011797  43.8591 316.3592 15.30547446893099"}}, "geometry": {"type": "Point", "coordinates": [119.6911143074444, 44.01198811923991]}}, {"type": "Feature", "properties": {"norad_id": 34492, "name": "IRIDIUM 33 DEB", "group": "iridium-33-debris", "lat": 60.30183778214769, "lon": 146.33035560034037, "alt_km": 825.6212391792924, "timestamp": "2025-12-17T21:39:46.075030+00:00", "meta": {"OBJECT_NAME": "IRIDIUM 33 DEB", "OBJECT_ID": "1997-051GH", "EPOCH": "2025-12-17T10:01:30.958752", "MEAN_MOTION": 14.25820052, "ECCENTRICITY": 0.01887417, "INCLINATION": 86.4709, "RA_OF_ASC_NODE": 332.7379, "ARG_OF_PERICENTER": 222.99, "MEAN_ANOMALY": 291.1876, "EPHEMERIS_TYPE": 0, "CLASSIFICATION_TYPE": "U", "NORAD_CAT_ID": 34492, "ELEMENT_SET_NO": 999, "REV_AT_EPOCH": 85125, "BSTAR": 0.0026623829, "MEAN_MOTION_DOT": 7.653e-05, "MEAN_MOTION_DDOT": 0}, "tle": {"line1": "1 34492U 97051GH  25351.41771943  .00007653  00000+0  26624-2 0  9998", "line2": "2 34492  86.4709 332.7379 0188741 222.9900 291.1876 14.25820052851259"}}, "geometry": {"type": "Point", "coordinates": [146.33035560034037, 60.30183778214769]}}, {"type": "Feature", "properties": {"norad_id": 34497, "name": "IRIDIUM 33 DEB", "group": "iridium-33-debris", "lat": 31.74414234649522, "lon": 52.5043465876425, "alt_km": 778.0867788668211, "timestamp": "2025-12-17T21:39:46.075039+00:00", "meta": {"OBJECT_NAME": "IRIDIUM 33 DEB", "OBJECT_ID": "1997-051GN", "EPOCH": "2025-12-17T03:08:55.431168", "MEAN_MOTION": 14.27466944, "ECCENTRICITY": 0.00783935, "INCLINATION": 86.2776, "RA_OF_ASC_NODE": 50.5255, "ARG_OF_PERICENTER": 325.2026, "MEAN_ANOMALY": 64.1256, "EPHEMERIS_TYPE": 0, "CLASSIFICATION_TYPE": "U", "NORAD_CAT_ID": 34497, "ELEMENT_SET_NO": 999, "REV_AT_EPOCH": 86946, "BSTAR": 0.00048733153, "MEAN_MOTION_DOT": 1.254e-05, "MEAN_MOTION_DDOT": 0}, "tle": {"line1": "1 34497U 97051GN  25351.13119712  .00001254  00000+0  48733-3 0  9999", "line2": "2 34497  86.2776  50.5255 0078393 325.2026  64.1256 14.27466944869461"}}, "geometry": {"type": "Point", "coordinates": [52.5043465876425, 31.74414234649522]}}, {"type": "Feature", "properties": {"norad_id": 34508, "name": "IRIDIUM 33 DEB", "group": "iridium-33-debris", "lat": 32.23076771176859, "lon": 102.74804548568937, "alt_km": 788.0026094496234, "timestamp": "2025-12-17T21:39:46.075048+00:00", "meta": {"OBJECT_NAME": "IRIDIUM 33 DEB", "OBJECT_ID": "1997-051GZ", "EPOCH": "2025-12-17T08:09:19.662624", "MEAN_MOTION": 14.38463822, "ECCENTRICITY": 0.00664313, "INCLINATION": 86.3706, "RA_OF_ASC_NODE": 100.6932, "ARG_OF_PERICENTER": 158.1405, "MEAN_ANOMALY": 202.2652, "EPHEMERIS_TYPE": 0, "CLASSIFICATION_TYPE": "U", "NORAD_CAT_ID": 34508, "ELEMENT_SET_NO": 999, "REV_AT_EPOCH": 87375, "BSTAR": 0.00097769718, "MEAN_MOTION_DOT": 3.081e-05, "MEAN_MOTION_DDOT": 0}, "tle": {"line1": "1 34508U 97051GZ  25351.33981091  .00003081  00000+0  97770-3 0  9996", "line2": "2 34508  86.3706 100.6932 0066431 158.1405 202.2652 14.38463822873757"}}, "geometry": {"type": "Point", "coordinates": [102.74804548568937, 32.23076771176859]}}, {"type": "Feature", "properties": {"norad_id": 34521, "name": "IRIDIUM 33 DEB", "group": "iridium-33-debris", "lat": -46.27257299540794, "lon": 24.48037513153538, "alt_km": 689.8932293156113, "timestamp": "2025-12-17T21:39:46.075057+00:00", "meta": {"OBJECT_NAME": "IRIDIUM 33 DEB", "OBJECT_ID": "1997-051HN", "EPOCH": "2025-12-17T13:40:08.886720", "MEAN_MOTION": 14.63407494, "ECCENTRICITY": 0.00021431, "INCLINATION": 86.3797, "RA_OF_ASC_NODE": 28.4221, "ARG_OF_PERICENTER": 191.417, "MEAN_ANOMALY": 168.6994, "EPHEMERIS_TYPE": 0, "CLASSIFICATION_TYPE": "U", "NORAD_CAT_ID": 34521, "ELEMENT_SET_NO": 999, "REV_AT_EPOCH": 88543, "BSTAR": 0.00063465503, "MEAN_MOTION_DOT": 3.302e-05, "MEAN_MOTION_DDOT": 0}, "tle": {"line1": "1 34521U 97051HN  25351.56954730  .00003302  00000+0  63466-3 0  9997", "line2": "2 34521  86.3797  28.4221 0002143 191.4170 168.6994 14.63407494885432"}}, "geometry": {"type": "Point", "coordinates": [24.48037513153538, -46.27257299540794]}}, {"type": "Feature", "properties": {"norad_id": 34525, "name": "IRIDIUM 33 DEB", "group": "iridium-33-debris", "lat": 67.00095636896766, "lon": -143.95523842039418, "alt_km": 738.37874603211, "timestamp": "2025-12-17T21:39:46.075066+00:00", "meta": {"OBJECT_NAME": "IRIDIUM 33 DEB", "OBJECT_ID": "1997-051HS", "EPOCH": "2025-12-17T15:03:01.274112", "MEAN_MOTION": 14.4291718, "ECCENTRICITY": 0.00065505, "INCLINATION": 86.3725, "RA_OF_ASC_NODE": 44.7578, "ARG_OF_PERICENTER": 83.9317, "MEAN_ANOMALY": 38.4452, "EPHEMERIS_TYPE": 0, "CLASSIFICATION_TYPE": "U", "NORAD_CAT_ID": 34525, "ELEMENT_SET_NO": 999, "REV_AT_EPOCH": 88158, "BSTAR": 0.00028829346, "MEAN_MOTION_DOT": 9.83e-06, "MEAN_MOTION_DDOT": 0}, "tle": {"line1": "1 34525U 97051HS  25351.62709808  .00000983  00000+0  28829-3 0  9998", "line2": "2 34525  86.3725  44.7578 0006550  83.9317  38.4452 14.42917180881587"}}, "geometry": {"type": "Point", "coordinates": [-143.95523842039418, 67.00095636896766]}}]}